{
  "type": "FeatureCollection",
  "name": "coned_provinces_zones",
  "crs": { "type": "name", "properties": { "name": "urn:ogc:def:crs:OGC:1.3:CRS84" } },
  "features": [
    {
      "type": "Feature",
      "id": "40",
      "properties": {
        "zone_id": "40",
        "zone_code": "KKN",
        "zone_name_th": "ขอนแก่น",
        "zone_name_en": "Khon Kaen",
        "level": "province",
        "school_count": 12,
        "staff_assigned": 486,
        "student_count": 8420,
        "area_count": 5,
        "profile_zone_ids": ["KKN-1", "KKN-2"]
      },
      "geometry": {
        "type": "Polygon",
        "coordinates": [[
          [102.35, 16.05], [102.55, 15.95], [102.85, 15.90], [103.15, 16.05],
          [103.25, 16.35], [103.15, 16.65], [102.85, 16.85], [102.55, 16.80],
          [102.30, 16.55], [102.25, 16.25], [102.35, 16.05]
        ]]
      }
    },
    {
      "type": "Feature",
      "id": "20",
      "properties": {
        "zone_id": "20",
        "zone_code": "CBI",
        "zone_name_th": "ชลบุรี",
        "zone_name_en": "Chon Buri",
        "level": "province",
        "school_count": 6,
        "staff_assigned": 312,
        "student_count": 5210,
        "area_count": 3,
        "profile_zone_ids": ["CBI-1"]
      },
      "geometry": {
        "type": "Polygon",
        "coordinates": [[
          [100.85, 12.85], [101.05, 12.70], [101.35, 12.75], [101.45, 13.00],
          [101.35, 13.35], [101.10, 13.50], [100.85, 13.40], [100.75, 13.15],
          [100.85, 12.85]
        ]]
      }
    },
    {
      "type": "Feature",
      "id": "10",
      "properties": {
        "zone_id": "10",
        "zone_code": "BKK",
        "zone_name_th": "กรุงเทพมหานคร",
        "zone_name_en": "Bangkok",
        "level": "province",
        "school_count": 4,
        "staff_assigned": 890,
        "student_count": 12400,
        "area_count": 2,
        "profile_zone_ids": ["BKK-1", "BKK-2"]
      },
      "geometry": {
        "type": "Polygon",
        "coordinates": [[
          [100.35, 13.55], [100.55, 13.50], [100.70, 13.60], [100.75, 13.80],
          [100.65, 13.95], [100.45, 13.95], [100.30, 13.80], [100.28, 13.65],
          [100.35, 13.55]
        ]]
      }
    },
    {
      "type": "Feature",
      "id": "50",
      "properties": {
        "zone_id": "50",
        "zone_code": "CNX",
        "zone_name_th": "เชียงใหม่",
        "zone_name_en": "Chiang Mai",
        "level": "province",
        "school_count": 8,
        "staff_assigned": 540,
        "student_count": 9100,
        "area_count": 4,
        "profile_zone_ids": ["CNX-1"]
      },
      "geometry": {
        "type": "Polygon",
        "coordinates": [[
          [98.55, 18.35], [98.85, 18.20], [99.25, 18.30], [99.45, 18.60],
          [99.35, 19.00], [99.05, 19.25], [98.70, 19.15], [98.50, 18.80],
          [98.55, 18.35]
        ]]
      }
    }
  ]
}
